CAS-2T & KS-1Q          
1 41847U 16066G   21166.59647351  .00000106  00000-0  26920-4 0  9999
2 41847  98.6011 225.7201 0364393 225.8089 131.2625 14.38195873241615
NAYIF-1 (EO-88)         
1 42017U 17008BX  21166.46567998  .00002150  00000-0  80906-4 0  9995
2 42017  97.3154 234.1009 0007684 111.4693 248.7367 15.28185001240952
ZHUHAI-1 02 (CAS-4B)    
1 42759U 17034B   21166.51602711  .00000314  00000-0  32169-4 0  9994
2 42759  43.0164 191.7345 0007725 159.6054 327.1866 15.10227660220858
ZHUHAI-1 01 (CAS-4A)    
1 42761U 17034D   21166.44287101  .00000239  00000-0  27610-4 0  9992
2 42761  43.0161 191.1918 0008133 160.2743 336.8039 15.10313966220848
MAX VALIER SAT          
1 42778U 17036P   21166.59633840  .00001357  00000-0  59430-4 0  9990
2 42778  97.2548 215.2682 0012022 174.2106 185.9272 15.23612025221005
RADFXSAT (FOX-1B)       
1 43017U 17073E   21166.30442229  .00000633  00000-0  54728-4 0  9997
2 43017  97.7072  70.3764 0253737 307.6586  50.1848 14.79564074192801
FOX-1D (AO-92)          
1 43137U 18004AC  21166.43029006  .00001469  00000-0  61265-4 0  9995
2 43137  97.4066 240.4821 0007925 208.4188 151.6619 15.25259151190350
DIWATA-2B               
1 43678U 18084H   21166.57541815  .00000260  00000-0  31550-4 0  9997
2 43678  97.9238 291.8445 0011179  61.6903 298.5470 14.91754753143150
ES'HAIL 2               
1 43700U 18090A   21166.48293682  .00000153  00000-0  00000-0 0  9999
2 43700   0.0133 306.7392 0001077 158.5883 358.3365  1.00273779  9352
FOX-1CLIFF (AO-95)      
1 43770U 18099N   21166.44246813 -.00000010  00000-0  42267-5 0  9994
2 43770  97.6648 236.6740 0015869  67.2001 293.0895 14.95327153138150
ITASAT 1                
1 43786U 18099AE  21166.42898220  .00000192  00000-0  22336-4 0  9998
2 43786  97.6671 237.3374 0016565  60.8366 299.4511 14.95623121138183
JY1SAT (JO-97)          
1 43803U 18099AX  21166.46007407  .00000461  00000-0  46277-4 0  9990
2 43803  97.6627 237.1199 0016278  60.9508 299.3342 14.95865940138196
UWE-4                   
1 43880U 18111E   21166.31132725  .00000103  00000-0  13963-4 0  9995
2 43880  97.6878  74.0813 0013715 107.7353 252.5367 14.96875576134765
PSAT2 (NO-104)          
1 44354U 19036R   21166.26082292  .00010157  00000-0  13152-3 0  9995
2 44354  28.5293 141.6614 0325579 252.2385 104.2428 15.13444242108642
BRICSAT2 (NO-103)       
1 44355U 19036S   21166.18704282  .00029252  00000-0  32057-3 0  9998
2 44355  28.5265  97.4877 0264022 324.2512  34.0668 15.29423710109087
JAISAT-1                
1 44419U 19038F   21166.45684498  .00001207  00000-0  70397-4 0  9997
2 44419  97.5883 131.1647 0020032 323.4285  36.5577 15.13768393107491
DUCHIFAT-3              
1 44854U 19089C   21166.19632075  .00000517  00000-0  47707-4 0  9993
2 44854  36.9645 113.9809 0006970 122.2564 237.8860 14.99501349 82767
RS-44 & BREEZE-KM R/B   
1 44909U 19096E   21166.36041055  .00000037  00000-0  97049-4 0  9994
2 44909  82.5205 114.2035 0218544  97.9221 264.6744 12.79710231 68550
ORBITAL FACTORY 2 (OF-2)
1 45113U 19071C   21166.06282000  .00002390  00000-0  78518-4 0  9993
2 45113  51.6432  49.1038 0011159 285.9958  73.9796 15.35763118 76807
HUSKYSAT-1 (HO-107)     
1 45119U 19071J   21166.52976277  .00002740  00000-0  88314-4 0  9990
2 45119  51.6428  46.2172 0010580 284.1096  75.8710 15.35791309 76873
BY70-2                  
1 45857U 20042B   21166.47725533  .00001379  00000-0  20268-3 0  9990
2 45857  97.9841 242.2446 0010281 211.3657 148.6948 14.77028971 51259
SALSAT                  
1 46495U 20068K   21166.59749508 -.00000290  00000-0 -16638-4 0  9998
2 46495  97.6952 104.1047 0018958  78.1654 282.1695 15.03456585 39059
BY70-3                  
1 46839U 20079N   21166.49662641  .00003687  00000-0  11556-3 0  9997
2 46839  97.2400 240.3907 0006320 201.0153 284.3592 15.33676529 33907
RADFXSAT-2 (AO-109)     
1 47311U 21002C   21166.58391619  .00001097  00000-0  59526-4 0  9997
2 47311  60.6847 298.1940 0036476  47.0877 313.3261 15.21650624 22589
UVSQ-SAT                
1 47438U 21006AB  21166.39774523  .00000940  00000-0  56609-4 0  9994
2 47438  97.4873 227.6583 0014433 104.0903 256.1933 15.13137619 21741
DIY-1 (ARDUIQUBE)       
1 47963U 21022AH  21166.43644375  .00001339  00000-0  92720-4 0  9998
2 47963  97.5584  68.8059 0018532 316.8058  43.1715 15.07243819 11592
